DMSP 5D-3 F16 (USA 172) 
1 28054U 03048A   26203.31075815 -.00000031  00000+0  72595-5 0  9994
2 28054  98.9887 227.3702 0007933  53.7130 317.1859 14.14484830174456
METEOSAT-9 (MSG-2)      
1 28912U 05049B   26202.80655422  .00000119  00000+0  00000+0 0  9993
2 28912   9.4377  53.8213 0002478   0.0905 221.7142  1.00275911  7340
DMSP 5D-3 F17 (USA 191) 
1 29522U 06050A   26203.31315158 -.00000004  00000+0  20531-4 0  9990
2 29522  98.7391 209.1662 0009331 321.4405  38.6102 14.14996562 17397
FENGYUN 3A              
1 32958U 08026A   26203.28900592  .00000051  00000+0  44585-4 0  9996
2 32958  98.6886 143.4668 0009380  33.1772 326.9991 14.19577579940387
EWS-G3 (GOES 14)        
1 35491U 09033A   26203.28177345 -.00000357  00000+0  00000+0 0  9991
2 35491   1.7778  82.6087 0002221  39.0323  40.4302  1.00095068  6943
DMSP 5D-3 F18 (USA 210) 
1 35951U 09057A   26203.28670658  .00000228  00000+0  14101-3 0  9990
2 35951  98.9063 183.9840 0011620 146.0613 214.1305 14.14915082864553
EWS-G2 (GOES 15)        
1 36411U 10008A   26203.12784208  .00000025  00000+0  00000+0 0  9994
2 36411   1.3715  82.3854 0005489  53.4557 273.2990  1.00269824 59984
COMS 1                  
1 36744U 10032A   26203.12796281 -.00000161  00000+0  00000+0 0  9996
2 36744   4.8926  74.9342 0011497  15.2575 190.2430  0.99166306 51433
FENGYUN 3B              
1 37214U 10059A   26203.31030272 -.00000296  00000+0 -12985-3 0  9999
2 37214  98.9602 249.4700 0023248  87.5469 338.0763 14.14847231812395
SUOMI NPP               
1 37849U 11061A   26203.30155319  .00000055  00000+0  47260-4 0  9992
2 37849  98.7956 143.9391 0001114 183.3943 176.7225 14.19523719763429
METEOSAT-10 (MSG-3)     
1 38552U 12035B   26202.83018792 -.00000008  00000+0  00000+0 0  9991
2 38552   4.7516  60.8480 0001468  19.0859 158.5662  1.00272929 51208
METOP-B                 
1 38771U 12049A   26203.31463570  .00000063  00000+0  48829-4 0  9997
2 38771  98.6484 254.1095 0001375 218.6308 141.4771 14.21447795718259
INSAT-3D                
1 39216U 13038B   26203.28350679 -.00000337  00000+0  00000+0 0  9991
2 39216   2.0143  82.0988 0001124  43.2243  46.2753  1.00273100 47433
FENGYUN 3C              
1 39260U 13052A   26203.23912807  .00000077  00000+0  60367-4 0  9995
2 39260  98.5006 175.5093 0013463 284.0743  75.8935 14.15761954663527
METEOR-M 2              
1 40069U 14037A   26203.27010457  .00000472  00000+0  23527-3 0  9997
2 40069  98.5143 177.7705 0004762 302.9953  57.0766 14.21471827624308
HIMAWARI-8              
1 40267U 14060A   26203.28576014 -.00000273  00000+0  00000+0 0  9997
2 40267   0.0407 265.3927 0001347 251.1188  27.0448  1.00270960 43116
FENGYUN 2G              
1 40367U 14090A   26203.06375166 -.00000304  00000+0  00000+0 0  9997
2 40367   5.7250  72.3926 0003721 172.1360 177.7509  1.00278644 42344
METEOSAT-11 (MSG-4)     
1 40732U 15034A   26203.11718203  .00000062  00000+0  00000+0 0  9991
2 40732   3.2857  70.8821 0001988 355.4832 284.9676  1.00274021  7562
ELEKTRO-L 2             
1 41105U 15074A   26202.96987718 -.00000120  00000+0  00000+0 0  9997
2 41105   6.7794  70.0943 0000713 229.6444 334.6532  1.00272527 38857
SENTINEL-3A             
1 41335U 16011A   26203.28147600  .00000060  00000+0  43016-4 0  9999
2 41335  98.6231 270.1578 0001296  88.5490 271.5839 14.26741184543060
INSAT-3DR               
1 41752U 16054A   26202.84480786 -.00000074  00000+0  00000+0 0  9992
2 41752   0.0861  89.0733 0010297 180.3786  48.2603  1.00271632 36169
HIMAWARI-9              
1 41836U 16064A   26203.28576014  .00000000  00000+0  00000+0 0  9993
2 41836   0.0127  42.8829 0002551 136.2420   4.5335  1.00270556 35563
GOES 16                 
1 41866U 16071A   26203.24627885 -.00000088  00000+0  00000+0 0  9990
2 41866   0.4214  85.4334 0000706  71.6439 126.8756  1.00271829 35450
FENGYUN 4A              
1 41882U 16077A   26203.28238013 -.00000356  00000+0  00000+0 0  9997
2 41882   2.4095  79.8837 0008067 159.1488 286.2764  1.00265162 35280
CYGFM05                 
1 41884U 16078A   26202.92185296  .00026554  00000+0  34094-3 0  9995
2 41884  34.9576  30.3216 0005264 111.6586 248.4700 15.58090085534177
CYGFM04                 
1 41885U 16078B   26202.77943341  .00032991  00000+0  34497-3 0  9991
2 41885  34.9332 357.1389 0004370 160.7530 199.3362 15.63384742534417
CYGFM02                 
1 41886U 16078C   26202.77381462  .00039887  00000+0  36440-3 0  9993
2 41886  34.9412 350.6405 0005085 161.8506 198.2404 15.66729340534597
CYGFM01                 
1 41887U 16078D   26202.83080644  .00027185  00000+0  33957-3 0  9997
2 41887  34.9406  31.6928 0005101 102.7023 257.4273 15.58813304534119
CYGFM08                 
1 41888U 16078E   26202.79204944  .00030832  00000+0  34386-3 0  9994
2 41888  34.9440  10.5744 0006054 142.0586 218.0567 15.61738490534383
CYGFM07                 
1 41890U 16078G   26202.81282156  .00032533  00000+0  36125-3 0  9994
2 41890  34.9457 358.7464 0004819 160.4902 199.6009 15.61851130534419
CYGFM03                 
1 41891U 16078H   26202.78408344  .00030303  00000+0  33689-3 0  9995
2 41891  34.9411   0.8660 0004451 143.1022 217.0011 15.61832795534386
