OBJECT_NAME,OBJECT_ID,EPOCH,MEAN_MOTION,ECCENTRICITY,INCLINATION,RA_OF_ASC_NODE,ARG_OF_PERICENTER,MEAN_ANOMALY,EPHEMERIS_TYPE,CLASSIFICATION_TYPE,NORAD_CAT_ID,ELEMENT_SET_NO,REV_AT_EPOCH,BSTAR,MEAN_MOTION_DOT,MEAN_MOTION_DDOT
DMSP 5D-3 F16 (USA 172),2003-048A,2026-07-22T07:27:29.504160,14.14484830,.00079337,98.9887,227.3702,53.7130,317.1859,0,U,28054,999,17445,.7259456E-5,-.31E-6,0
METEOSAT-9 (MSG-2),2005-049B,2026-07-21T19:21:26.284608,1.00275911,.00024788,9.4377,53.8213,0.0905,221.7142,0,U,28912,999,734,0,.119E-5,0
DMSP 5D-3 F17 (USA 191),2006-050A,2026-07-22T07:30:56.296512,14.14996562,.00093314,98.7391,209.1662,321.4405,38.6102,0,U,29522,999,1739,.20530808E-4,-.4E-7,0
FENGYUN 3A,2008-026A,2026-07-22T06:56:10.111488,14.19577579,.00093803,98.6886,143.4668,33.1772,326.9991,0,U,32958,999,94038,.44585301E-4,.51E-6,0
EWS-G3 (GOES 14),2009-033A,2026-07-22T06:45:45.226080,1.00095068,.00022215,1.7778,82.6087,39.0323,40.4302,0,U,35491,999,694,0,-.357E-5,0
DMSP 5D-3 F18 (USA 210),2009-057A,2026-07-22T06:52:51.448512,14.14915082,.00116208,98.9063,183.9840,146.0613,214.1305,0,U,35951,999,86455,.14101005E-3,.228E-5,0
EWS-G2 (GOES 15),2010-008A,2026-07-22T03:04:05.555712,1.00269824,.00054897,1.3715,82.3854,53.4557,273.2990,0,U,36411,999,5998,0,.25E-6,0
COMS 1,2010-032A,2026-07-22T03:04:15.986784,0.99166306,.00114972,4.8926,74.9342,15.2575,190.2430,0,U,36744,999,5143,0,-.161E-5,0
FENGYUN 3B,2010-059A,2026-07-22T07:26:50.155008,14.14847231,.00232483,98.9602,249.4700,87.5469,338.0763,0,U,37214,999,81239,-.12984674E-3,-.296E-5,0
SUOMI NPP,2011-061A,2026-07-22T07:14:14.195616,14.19523719,.00011148,98.7956,143.9391,183.3943,176.7225,0,U,37849,999,76342,.47259671E-4,.55E-6,0
METEOSAT-10 (MSG-3),2012-035B,2026-07-21T19:55:28.236288,1.00272929,.00014684,4.7516,60.8480,19.0859,158.5662,0,U,38552,999,5120,0,-.8E-7,0
METOP-B,2012-049A,2026-07-22T07:33:04.524480,14.21447795,.00013758,98.6484,254.1095,218.6308,141.4771,0,U,38771,999,71825,.48828924E-4,.63E-6,0
INSAT-3D,2013-038B,2026-07-22T06:48:14.986656,1.00273100,.00011247,2.0143,82.0988,43.2243,46.2753,0,U,39216,999,4743,0,-.337E-5,0
FENGYUN 3C,2013-052A,2026-07-22T05:44:20.665248,14.15761954,.00134636,98.5006,175.5093,284.0743,75.8935,0,U,39260,999,66352,.6036666E-4,.77E-6,0
METEOR-M 2,2014-037A,2026-07-22T06:28:57.034848,14.21471827,.00047628,98.5143,177.7705,302.9953,57.0766,0,U,40069,999,62430,.23527089E-3,.472E-5,0
HIMAWARI-8,2014-060A,2026-07-22T06:51:29.676096,1.00270960,.00013471,0.0407,265.3927,251.1188,27.0448,0,U,40267,999,4311,0,-.273E-5,0
FENGYUN 2G,2014-090A,2026-07-22T01:31:48.143424,1.00278644,.0003721,5.7250,72.3926,172.1360,177.7509,0,U,40367,999,4234,0,-.304E-5,0
METEOSAT-11 (MSG-4),2015-034A,2026-07-22T02:48:44.527392,1.00274021,.00019889,3.2857,70.8821,355.4832,284.9676,0,U,40732,999,756,0,.62E-6,0
ELEKTRO-L 2,2015-074A,2026-07-21T23:16:37.388352,1.00272527,.0000713,6.7794,70.0943,229.6444,334.6532,0,U,41105,999,3885,0,-.12E-5,0
SENTINEL-3A,2016-011A,2026-07-22T06:45:19.526400,14.26741184,.00012965,98.6231,270.1578,88.5490,271.5839,0,U,41335,999,54306,.43016085E-4,.6E-6,0
INSAT-3DR,2016-054A,2026-07-21T20:16:31.399104,1.00271632,.00102979,0.0861,89.0733,180.3786,48.2603,0,U,41752,999,3616,0,-.74E-6,0
HIMAWARI-9,2016-064A,2026-07-22T06:51:29.676096,1.00270556,.00025515,0.0127,42.8829,136.2420,4.5335,0,U,41836,999,3556,0,0,0
GOES 16,2016-071A,2026-07-22T05:54:38.492640,1.00271829,.00007064,0.4214,85.4334,71.6439,126.8756,0,U,41866,999,3545,0,-.88E-6,0
FENGYUN 4A,2016-077A,2026-07-22T06:46:37.643232,1.00265162,.00080678,2.4095,79.8837,159.1488,286.2764,0,U,41882,999,3528,0,-.356E-5,0
CYGFM05,2016-078A,2026-07-21T22:07:28.095744,15.58090085,.00052646,34.9576,30.3216,111.6586,248.4700,0,U,41884,999,53417,.34094158E-3,.26554E-3,0
CYGFM04,2016-078B,2026-07-21T18:42:23.046624,15.63384742,.00043709,34.9332,357.1389,160.7530,199.3362,0,U,41885,999,53441,.34497112E-3,.32991E-3,0
CYGFM02,2016-078C,2026-07-21T18:34:17.583168,15.66729340,.00050854,34.9412,350.6405,161.8506,198.2404,0,U,41886,999,53459,.36439575E-3,.39887E-3,0
CYGFM01,2016-078D,2026-07-21T19:56:21.676416,15.58813304,.00051012,34.9406,31.6928,102.7023,257.4273,0,U,41887,999,53411,.33957331E-3,.27185E-3,0
CYGFM08,2016-078E,2026-07-21T19:00:33.071616,15.61738490,.00060543,34.9440,10.5744,142.0586,218.0567,0,U,41888,999,53438,.34385764E-3,.30832E-3,0
CYGFM07,2016-078G,2026-07-21T19:30:27.782784,15.61851130,.00048195,34.9457,358.7464,160.4902,199.6009,0,U,41890,999,53441,.36124682E-3,.32533E-3,0
CYGFM03,2016-078H,2026-07-21T18:49:04.809216,15.61832795,.00044516,34.9411,0.8660,143.1022,217.0011,0,U,41891,999,53438,.33688534E-3,.30303E-3,0
